     2.100          NAVIGATION                              RINEX VERSION / TYPE
fic2rin                                 10/20/2013 00:14:14 PGM / RUN BY / DATE
                                                            END OF HEADER
 4 13 10 19  8  0  0.0  .221654772758D-05  .454747350886D-12  .000000000000D+00
     .170000000000D+02 -.580937500000D+02  .528486299290D-08  .142612799806D+01
    -.309199094772D-05  .106455035275D-01  .737048685551D-05  .515361931801D+04
     .547200000000D+06 -.149011611938D-06  .230262284267D+01 -.912696123123D-07
     .937899312482D+00  .232531250000D+03  .104045189891D+01 -.854214152877D-08
    -.658598861858D-09  .100000000000D+01  .176200000000D+04  .000000000000D+00
     .240000000000D+01  .000000000000D+00 -.605359673500D-08  .170000000000D+02
     .540006000000D+06  .400000000000D+01
 5 13 10 19  8  0  0.0 -.398839823902D-03  .454747350886D-12  .000000000000D+00
     .850000000000D+02  .574687500000D+02  .443339895458D-08  .399175894021D+00
     .310875475407D-05  .335684826132D-02  .118743628263D-04  .515373245049D+04
     .547200000000D+06  .614672899246D-07 -.293106465847D+01  .614672899246D-07
     .948609758524D+00  .142593750000D+03  .301690239935D+00 -.797247494273D-08
     .396445084958D-10  .100000000000D+01  .176200000000D+04  .000000000000D+00
     .240000000000D+01  .000000000000D+00 -.977888703346D-08  .850000000000D+02
     .540006000000D+06  .400000000000D+01
 6 13 10 19  8  0  0.0  .109241344035D-03  .180762071977D-10  .000000000000D+00
     .500000000000D+01  .428750000000D+02  .539593904823D-08  .130104827114D+00
     .206381082535D-05  .816115306225D-02  .549666583538D-05  .515367276001D+04
     .547200000000D+06  .132247805595D-06  .119461130806D+01 -.335276126862D-07
     .942164948998D+00  .263062500000D+03 -.214112780782D+00 -.864678874489D-08
     .341442793891D-09  .100000000000D+01  .176200000000D+04  .000000000000D+00
     .240000000000D+01  .000000000000D+00 -.512227416039D-08  .500000000000D+01
     .540006000000D+06  .400000000000D+01
 7 13 10 19  8  0  0.0  .271139200777D-03  .420641299570D-11  .000000000000D+00
     .140000000000D+02 -.118562500000D+03  .439732602342D-08  .303372075366D+01
    -.607967376709D-05  .699646037538D-02  .544264912605D-05  .515366707230D+04
     .547200000000D+06 -.577419996262D-07 -.811339725430D+00 -.316649675369D-07
     .974708086858D+00  .285093750000D+03 -.285542586749D+01 -.808640825993D-08
    -.394302138552D-09  .100000000000D+01  .176200000000D+04  .000000000000D+00
     .240000000000D+01  .000000000000D+00 -.107102096081D-07  .140000000000D+02
     .540006000000D+06  .400000000000D+01
 8 13 10 19  8  0  0.0  .923685729504D-05  .341060513165D-12  .000000000000D+00
     .600000000000D+02 -.127593750000D+03  .378372903607D-08  .246464137251D+01
    -.654719769955D-05  .134939303389D-01  .669993460178D-05  .515368580055D+04
     .547200000000D+06 -.223517417908D-06 -.716857168596D+00 -.502914190292D-07
     .997729601500D+00  .275593750000D+03 -.281836851115D+01 -.773746515362D-08
    -.413945813933D-09  .100000000000D+01  .176200000000D+04  .000000000000D+00
     .240000000000D+01  .000000000000D+00 -.372529029846D-08  .600000000000D+02
     .540006000000D+06  .400000000000D+01
 9 13 10 19  8  0  0.0  .276637263596D-03  .284217094304D-11  .000000000000D+00
     .180000000000D+02 -.109218750000D+03  .422267589140D-08 -.206900204784D+01
    -.526383519173D-05  .168223077198D-01  .493414700031D-05  .515371371460D+04
     .547200000000D+06  .225380063057D-06 -.833480343950D+00  .284984707832D-06
     .983279215629D+00  .294437500000D+03  .173508315354D+01 -.789068582159D-08
    -.346085844436D-09  .100000000000D+01  .176200000000D+04  .000000000000D+00
     .240000000000D+01  .000000000000D+00 -.558793544769D-08  .180000000000D+02
     .540006000000D+06  .400000000000D+01
11 13 10 19  8  0  0.0 -.430020038038D-03 -.341060513165D-11  .000000000000D+00
     .100000000000D+03 -.487500000000D+02  .647741266738D-08 -.301065718598D+01
    -.248663127422D-05  .147022036836D-01  .397861003876D-05  .515368485451D+04
     .547200000000D+06  .178813934326D-06  .200341532832D+01 -.763684511185D-07
     .889170898108D+00  .262250000000D+03  .122865528137D+01 -.888501295360D-08
    -.371801201298D-09  .100000000000D+01  .176200000000D+04  .000000000000D+00
     .240000000000D+01  .000000000000D+00 -.116415321827D-07  .100000000000D+03
     .540006000000D+06  .400000000000D+01
12 13 10 19  8  0  0.0  .162948854268D-03  .227373675443D-11  .000000000000D+00
     .100000000000D+03 -.211562500000D+02  .364050878466D-08  .272608363470D+01
    -.119954347610D-05  .453117466532D-02  .123828649521D-04  .515375042152D+04
     .547200000000D+06 -.875443220139D-07  .248453002322D+00 -.502914190292D-07
     .985908755286D+00  .152500000000D+03  .334409719404D+00 -.743995276104D-08
     .229652423088D-09  .100000000000D+01  .176200000000D+04  .000000000000D+00
     .240000000000D+01  .000000000000D+00 -.116415321827D-07  .100000000000D+03
     .540006000000D+06  .400000000000D+01
13 13 10 19  8  0  0.0  .686105340719D-04 -.375166564481D-11  .000000000000D+00
     .800000000000D+02  .638750000000D+02  .452733143867D-08 -.903524288122D+00
     .309571623802D-05  .502509530634D-02  .253319740295D-05  .515368597221D+04
     .547200000000D+06 -.614672899246D-07 -.177786499903D+01 -.465661287308D-07
     .979672992364D+00  .344437500000D+03  .220315584452D+01 -.842642242289D-08
     .372515516767D-09  .100000000000D+01  .176200000000D+04  .000000000000D+00
     .340000000000D+01  .000000000000D+00 -.107102096081D-07  .800000000000D+02
     .540006000000D+06  .400000000000D+01
14 13 10 19  8  0  0.0  .212978105992D-03 -.102318153949D-11  .000000000000D+00
     .560000000000D+02  .606250000000D+02  .472412535021D-08 -.644584742296D+00
     .333040952682D-05  .742687785532D-02  .246055424213D-05  .515356703949D+04
     .547200000000D+06  .000000000000D+00 -.180816839029D+01  .912696123123D-07
     .972321134129D+00  .341375000000D+03 -.199671716918D+01 -.851106880589D-08
     .328585115460D-09  .100000000000D+01  .176200000000D+04  .000000000000D+00
     .240000000000D+01  .000000000000D+00 -.884756445885D-08  .560000000000D+02
     .540006000000D+06  .400000000000D+01
15 13 10 19  8  0  0.0 -.142714474350D-03 -.193267624127D-11  .000000000000D+00
     .250000000000D+02  .774375000000D+02  .527486257634D-08 -.112098590051D+01
     .391900539398D-05  .567652028985D-02  .264681875706D-05  .515358165550D+04
     .547200000000D+06  .502914190292D-07 -.191293669635D+01 -.726431608200D-07
     .938997097912D+00  .312781250000D+03  .165515405832D+00 -.869393356580D-08
     .392159192147D-09  .100000000000D+01  .176200000000D+04  .000000000000D+00
     .240000000000D+01  .000000000000D+00 -.977888703346D-08  .250000000000D+02
     .540006000000D+06  .400000000000D+01
16 13 10 19  8  0  0.0 -.244123861194D-03  .909494701773D-12  .000000000000D+00
     .420000000000D+02 -.199687500000D+02  .371408327791D-08  .556988294467D+00
    -.970438122749D-06  .709496717900D-02  .129099935293D-04  .515373770142D+04
     .547200000000D+06  .800937414169D-07  .266892171850D+00  .875443220139D-07
     .986558422575D+00  .140406250000D+03  .135934982832D+00 -.760245953010D-08
     .224652214809D-09  .100000000000D+01  .176200000000D+04  .000000000000D+00
     .240000000000D+01  .000000000000D+00 -.977888703346D-08  .420000000000D+02
     .540006000000D+06  .400000000000D+01
18 13 10 19  8  0  0.0  .280162785202D-03  .204636307899D-11  .000000000000D+00
     .130000000000D+02  .627187500000D+02  .498235039204D-08  .112824216583D+01
     .333227217197D-05  .145737132989D-01  .119227916002D-04  .515365183067D+04
     .547200000000D+06 -.255182385445D-06 -.293160343072D+01  .372529029846D-07
     .927186338518D+00  .132968750000D+03 -.207510150630D+01 -.841856495274D-08
    -.832177520677D-10  .100000000000D+01  .176200000000D+04  .000000000000D+00
     .240000000000D+01  .000000000000D+00 -.107102096081D-07  .130000000000D+02
     .540006000000D+06  .400000000000D+01
19 13 10 19  8  0  0.0 -.412444118410D-03 -.272848410532D-11  .000000000000D+00
     .730000000000D+02  .302500000000D+02  .486055960467D-08 -.124978477334D+01
     .158883631229D-05  .957739411388D-02  .480376183987D-05  .515374026871D+04
     .547200000000D+06  .165775418282D-06  .135314042572D+01 -.167638063431D-06
     .963396747216D+00  .288281250000D+03  .391919568726D+00 -.824070040111D-08
     .301441127661D-09  .100000000000D+01  .176200000000D+04  .000000000000D+00
     .240000000000D+01  .000000000000D+00 -.144354999065D-07  .730000000000D+02
     .540006000000D+06  .400000000000D+01
20 13 10 19  8  0  0.0  .130431726575D-03  .272848410532D-11  .000000000000D+00
     .750000000000D+02  .651875000000D+02  .484913055718D-08  .160794695148D+01
     .334717333317D-05  .567325449083D-02  .130087137222D-04  .515366924477D+04
     .547200000000D+06 -.763684511185D-07 -.298486092097D+01 -.130385160446D-06
     .928050416934D+00  .109281250000D+03  .128810213956D+01 -.820034157714D-08
    -.200008331150D-10  .100000000000D+01  .176200000000D+04  .000000000000D+00
     .240000000000D+01  .000000000000D+00 -.791624188423D-08  .750000000000D+02
     .540006000000D+06  .400000000000D+01
21 13 10 19  8  0  0.0 -.324287917465D-03 -.181898940355D-11  .000000000000D+00
     .870000000000D+02 -.616875000000D+02  .521521723473D-08  .214918434492D+01
    -.355392694473D-05  .206251293421D-01  .714696943760D-05  .515361466980D+04
     .547200000000D+06 -.447034835815D-07  .230533233519D+01 -.432133674622D-06
     .931748120855D+00  .226843750000D+03 -.209791726443D+01 -.823641450830D-08
    -.547879964257D-09  .100000000000D+01  .176200000000D+04  .000000000000D+00
     .240000000000D+01  .000000000000D+00 -.111758708954D-07  .870000000000D+02
     .540006000000D+06  .400000000000D+01
